CUTE-1 (CO-55)          
1 27844U 03031E   26183.84293221  .00000336  00000+0  16430-3 0  9991
2 27844  98.6736 192.2049 0010444 134.8646 225.3383 14.24345535193902
CUBESAT XI-IV (CO-57)   
1 27848U 03031J   26183.76896903  .00000279  00000+0  14166-3 0  9992
2 27848  98.6769 191.8320 0009989 152.4134 207.7577 14.23629228193596
CUBESAT XI-V            
1 28895U 05043F   26183.69034546  .00001723  00000+0  27823-3 0  9998
2 28895  98.3002 339.6391 0014698 152.1460 208.0536 14.72675255104033
CUTE-1.7+APD II (CO-65) 
1 32785U 08021C   26184.22406084  .00005922  00000+0  37226-3 0  9993
2 32785  97.8286 165.9782 0008085 346.2326  13.8680 15.09607835987613
CANX-2                  
1 32790U 08021H   26183.70625624  .00004776  00000+0  33425-3 0  9997
2 32790  97.8637 163.7870 0010052   0.8570 359.2672 15.05726016987149
SEEDS II (CO-66)        
1 32791U 08021J   26183.80114905  .00020103  00000+0  62654-3 0  9992
2 32791  97.7521 182.4499 0001504 186.8338 173.2883 15.33292646989682
SWISSCUBE               
1 35932U 09051B   26183.28877764  .00001164  00000+0  23926-3 0  9992
2 35932  98.4025  91.4397 0007062 154.9157 205.2388 14.62510844891362
BEESAT-1                
1 35933U 09051C   26183.30608929  .00000968  00000+0  20391-3 0  9995
2 35933  98.3950  91.0608 0005269 165.6666 194.4685 14.61745142891393
ITUPSAT1                
1 35935U 09051E   26182.96766707  .00000816  00000+0  17832-3 0  9995
2 35935  98.4034  89.8935 0007122 182.8141 177.3019 14.60462418890892
TISAT 1                 
1 36799U 10035E   26183.79296907  .00022562  00000+0  72453-3 0  9992
2 36799  98.0713 131.7335 0003418 142.3895 217.7584 15.32310970870094
AEROCUBE 4.5A           
1 38767U 12048K   26180.81601320  .02026816  74244-5  11805-2 0  9992
2 38767  64.6148 340.0554 0018867 267.4936  92.4076 16.17962819374686
STRAND-1                
1 39090U 13009E   26183.44238219  .00000331  00000+0  12561-3 0  9991
2 39090  98.3927   3.3015 0008617 177.2756 182.8479 14.37172679699257
BRITE-AUSTRIA           
1 39091U 13009F   26183.74046976  .00000212  00000+0  86788-4 0  9993
2 39091  98.4001   2.7917 0009968 186.9933 173.1116 14.36548421699285
NEE-01 PEGASO           
1 39151U 13018B   26183.33816390  .00003478  00000+0  33370-3 0  9995
2 39151  98.1242 327.9905 0013773 112.9357 247.3317 14.93736499712968
POPACS 2                
1 39269U 13055E   26183.80939348  .00015668 -80973-6  25834-3 0  9992
2 39269  80.9919 126.3077 0416046 143.6252 219.4027 14.91638793665549
POPACS 3                
1 39270U 13055F   26183.78443051  .00010186  00000+0  24058-3 0  9994
2 39270  80.9990 212.2734 0550429  22.5213 339.9158 14.56416328640827
ZACUBE-1 (TSHEPISOSAT)  
1 39417U 13066B   26183.93762385  .00003320  00000+0  25815-3 0  9994
2 39417  97.8039 146.3543 0042994 194.6737 165.3242 15.01274948683093
WNISAT-1                
1 39423U 13066H   26183.65191518  .00001475  00000+0  27566-3 0  9998
2 39423  97.7221 331.7119 0162977 182.6990 177.3349 14.58096043668984
TRITON-1                
1 39427U 13066M   26184.70554624  .00001882  00000+0  22930-3 0  9992
2 39427  97.8237  94.1360 0089659 179.4899 180.6422 14.81759508676538
GOMX-1                  
1 39430U 13066Q   26184.66415045  .00001971  00000+0  29996-3 0  9992
2 39430  97.6468  24.0866 0129315  25.1832 335.5606 14.69515976672331
CUBEBUG-2 (LO-74)       
1 39440U 13066AA  26184.34007842  .00005361  00000+0  49417-3 0  9997
2 39440  97.8916 133.3880 0056571 335.6744  24.1807 14.93897760679406
NEE-02 KRYSAOR          
1 39441U 13066AB  26184.29534946  .00002977  00000+0  32803-3 0  9993
2 39441  97.8895 123.3958 0066538  18.3345 342.0247 14.86694504678596
FUNCUBE-1 (AO-73)       
1 39444U 13066AE  26183.83251641  .00008238  00000+0  50720-3 0  9997
2 39444  97.8285 155.6072 0037315 147.9891 212.3615 15.09682031682022
UWE-3                   
1 39446U 13066AG  26183.85568661  .00003935  00000+0  33855-3 0  9993
2 39446  97.8709 140.0374 0047188 267.5766  92.0052 14.97140347679925
BRITE-CA1 (TORONTO)     
1 40020U 14033L   26183.80085423  .00001167  00000+0  18267-3 0  9998
2 40020  97.9759 312.4427 0077609 226.2184 133.2586 14.72703454644516
DUCHIFAT-1              
1 40021U 14033M   26183.10087887  .00143832  00000+0  12875-2 0  9992
2 40021  98.0445 244.3920 0000096 180.5510 179.5749 15.67889029658082
NANOSATC-BR1            
1 40024U 14033Q   26183.81895969  .00020733  00000+0  67311-3 0  9991
2 40024  98.0706 217.5968 0005214 125.2783 234.8945 15.31971066656371
QB50P1                  
1 40025U 14033R   26183.76871566  .00009620  00000+0  46935-3 0  9994
2 40025  98.0961 196.0094 0009437 162.0321 198.1247 15.18500631655393
QB50P2                  
1 40032U 14033Y   26183.75085530  .00008472  00000+0  45245-3 0  9996
2 40032  98.0751 181.6017 0009163 118.5652 241.6502 15.15363125655022
PERSEUS-M2              
1 40037U 14033AD  26184.58914517  .00001109  00000+0  10547-3 0  9996
2 40037  97.9971 135.4649 0010538 243.4644 116.5496 14.95555499653231
